{
  "norad_id": 59168,
  "name": "STARLINK-31322",
  "history": [
    {
      "epoch": "2026-04-13T03:50:31.404480Z",
      "apogee_km": 482.7785917603833,
      "perigee_km": 481.1021260554144,
      "latitude_deg": 5.1500893370454634e-06,
      "longitude_deg": 13.68599664923521,
      "height_km": 481.29253582997103,
      "semi_major_axis_km": 6860.077358907899,
      "eccentricity": 0.00012219,
      "inclination_deg": 43.0014,
      "raan_deg": 272.6717,
      "arg_perigee_deg": 300.4186,
      "mean_anomaly_deg": 59.6545,
      "mean_motion_rev_day": 15.2795035
    },
    {
      "epoch": "2026-04-14T19:04:21.525312Z",
      "apogee_km": 483.3833104237592,
      "perigee_km": 480.24694031204035,
      "latitude_deg": -3.750887146286295e-06,
      "longitude_deg": 134.3869090056155,
      "height_km": 481.27930258731163,
      "semi_major_axis_km": 6859.9521253678995,
      "eccentricity": 0.0002286,
      "inclination_deg": 43.0022,
      "raan_deg": 263.4426,
      "arg_perigee_deg": 281.5289,
      "mean_anomaly_deg": 78.5306,
      "mean_motion_rev_day": 15.27992191
    },
    {
      "epoch": "2026-04-15T17:02:36.757824Z",
      "apogee_km": 484.5293490347085,
      "perigee_km": 481.6394025912159,
      "latitude_deg": 1.9445668476054734e-05,
      "longitude_deg": 158.74655395549183,
      "height_km": 482.7805217076331,
      "semi_major_axis_km": 6861.221375812962,
      "eccentricity": 0.0002106,
      "inclination_deg": 43.0053,
      "raan_deg": 258.268,
      "arg_perigee_deg": 273.2415,
      "mean_anomaly_deg": 86.8196,
      "mean_motion_rev_day": 15.27568218
    },
    {
      "epoch": "2026-04-16T16:34:57.656640Z",
      "apogee_km": 483.3513856104373,
      "perigee_km": 482.7832778917682,
      "latitude_deg": -1.3812611917404637e-05,
      "longitude_deg": 159.15482390733195,
      "height_km": 482.82685869333187,
      "semi_major_axis_km": 6861.2043317511025,
      "eccentricity": 4.14e-05,
      "inclination_deg": 42.9985,
      "raan_deg": 252.7301,
      "arg_perigee_deg": 273.255,
      "mean_anomaly_deg": 86.8254,
      "mean_motion_rev_day": 15.2757391
    },
    {
      "epoch": "2026-04-17T20:49:46.174656Z",
      "apogee_km": 483.54427808440505,
      "perigee_km": 482.56395109795267,
      "latitude_deg": 1.790873476105219e-05,
      "longitude_deg": 87.64674563737931,
      "height_km": 482.8192210192747,
      "semi_major_axis_km": 6861.191114591179,
      "eccentricity": 7.144e-05,
      "inclination_deg": 42.9994,
      "raan_deg": 246.0842,
      "arg_perigee_deg": 271.2775,
      "mean_anomaly_deg": 88.7995,
      "mean_motion_rev_day": 15.27578324
    },
    {
      "epoch": "2026-04-18T15:39:38.148768Z",
      "apogee_km": 483.5962159046203,
      "perigee_km": 482.472356047977,
      "latitude_deg": 1.047067757012009e-05,
      "longitude_deg": 159.97481309475097,
      "height_km": 482.83679516095106,
      "semi_major_axis_km": 6861.171285976298,
      "eccentricity": 8.19e-05,
      "inclination_deg": 42.9995,
      "raan_deg": 241.6522,
      "arg_perigee_deg": 267.3099,
      "mean_anomaly_deg": 92.7659,
      "mean_motion_rev_day": 15.27584946
    },
    {
      "epoch": "2026-04-19T01:04:35.092704Z",
      "apogee_km": 483.6174852219119,
      "perigee_km": 482.51626200019837,
      "latitude_deg": -1.1933554596995533e-05,
      "longitude_deg": 16.134928847756914,
      "height_km": 482.61080934751214,
      "semi_major_axis_km": 6861.203873611055,
      "eccentricity": 8.025e-05,
      "inclination_deg": 43.0004,
      "raan_deg": 239.4363,
      "arg_perigee_deg": 294.9494,
      "mean_anomaly_deg": 65.1274,
      "mean_motion_rev_day": 15.27574063
    },
    {
      "epoch": "2026-04-20T14:44:22.598016Z",
      "apogee_km": 484.83659667198935,
      "perigee_km": 481.4000683261547,
      "latitude_deg": 4.606562142535337e-05,
      "longitude_deg": 160.78097683977907,
      "height_km": 482.4758542040615,
      "semi_major_axis_km": 6861.255332499072,
      "eccentricity": 0.00025043,
      "inclination_deg": 43.0041,
      "raan_deg": 230.577,
      "arg_perigee_deg": 284.1646,
      "mean_anomaly_deg": 75.8928,
      "mean_motion_rev_day": 15.27556878
    },
    {
      "epoch": "2026-04-21T14:16:40.788192Z",
      "apogee_km": 483.6684832527444,
      "perigee_km": 482.363491954502,
      "latitude_deg": 3.22171616343419e-05,
      "longitude_deg": 161.19528009970685,
      "height_km": 482.87672453291685,
      "semi_major_axis_km": 6861.152987603623,
      "eccentricity": 9.51e-05,
      "inclination_deg": 42.9981,
      "raan_deg": 225.0338,
      "arg_perigee_deg": 262.5453,
      "mean_anomaly_deg": 97.5291,
      "mean_motion_rev_day": 15.27591057
    }
  ]
}